{
  "type": "FeatureCollection",
  "features": [
    {
      "type": "Feature",
      "properties": {
        "norad_id": 40810,
        "name": "COSMOS 2251 DEB",
        "group": "cosmos-2251-debris",
        "lat": -55.16637215173388,
        "lon": 34.40655884608524,
        "alt_km": 704.2778451721961,
        "timestamp": "2025-12-21T03:56:51.230764+00:00",
        "meta_object_name": "COSMOS 2251 DEB",
        "meta_object_id": "1993-036BWP",
        "meta_epoch": "2025-12-19T04:29:06.134784",
        "meta_mean_motion": 14.58759616,
        "meta_eccentricity": 0.00182272,
        "meta_inclination": 74.037,
        "meta_ra_of_asc_node": 62.4589,
        "meta_arg_of_pericenter": 213.6462,
        "meta_mean_anomaly": 146.3547,
        "meta_ephemeris_type": 0,
        "meta_classification_type": "U",
        "meta_norad_cat_id": 40810,
        "meta_element_set_no": 999,
        "meta_rev_at_epoch": 61777,
        "meta_bstar": 0.00051940832,
        "meta_mean_motion_dot": 2.403e-05,
        "meta_mean_motion_ddot": 0,
        "tle_line1": "1 40810U 93036BWP 25353.18687656  .00002403  00000+0  51941-3 0  9990",
        "tle_line2": "2 40810  74.0370  62.4589 0018227 213.6462 146.3547 14.58759616617774"
      },
      "geometry": {
        "type": "Point",
        "coordinates": [
          34.40655884608524,
          -55.16637215173388
        ]
      }
    },
    {
      "type": "Feature",
      "properties": {
        "norad_id": 46271,
        "name": "COSMOS 2251 DEB",
        "group": "cosmos-2251-debris",
        "lat": -38.718254357829636,
        "lon": 49.11313723366499,
        "alt_km": 747.7854079750687,
        "timestamp": "2025-12-21T03:56:51.230773+00:00",
        "meta_object_name": "COSMOS 2251 DEB",
        "meta_object_id": "1993-036BWT",
        "meta_epoch": "2025-12-19T22:21:35.328960",
        "meta_mean_motion": 14.51444335,
        "meta_eccentricity": 0.003987,
        "meta_inclination": 74.0479,
        "meta_ra_of_asc_node": 64.6869,
        "meta_arg_of_pericenter": 184.8218,
        "meta_mean_anomaly": 175.2565,
        "meta_ephemeris_type": 0,
        "meta_classification_type": "U",
        "meta_norad_cat_id": 46271,
        "meta_element_set_no": 999,
        "meta_rev_at_epoch": 84746,
        "meta_bstar": 0.00020357,
        "meta_mean_motion_dot": 7.93e-06,
        "meta_mean_motion_ddot": 0,
        "tle_line1": "1 46271U 93036BWT 25353.93165890  .00000793  00000+0  20357-3 0  9998",
        "tle_line2": "2 46271  74.0479  64.6869 0039870 184.8218 175.2565 14.51444335847465"
      },
      "geometry": {
        "type": "Point",
        "coordinates": [
          49.11313723366499,
          -38.718254357829636
        ]
      }
    },
    {
      "type": "Feature",
      "properties": {
        "norad_id": 46430,
        "name": "COSMOS 2251 DEB",
        "group": "cosmos-2251-debris",
        "lat": 21.748890289615044,
        "lon": -13.01868764303334,
        "alt_km": 760.5363388419983,
        "timestamp": "2025-12-21T03:56:51.230782+00:00",
        "meta_object_name": "COSMOS 2251 DEB",
        "meta_object_id": "1993-036BWU",
        "meta_epoch": "2025-12-19T07:10:40.968192",
        "meta_mean_motion": 14.51392906,
        "meta_eccentricity": 0.0103211,
        "meta_inclination": 73.9139,
        "meta_ra_of_asc_node": 343.9071,
        "meta_arg_of_pericenter": 263.0684,
        "meta_mean_anomaly": 95.8727,
        "meta_ephemeris_type": 0,
        "meta_classification_type": "U",
        "meta_norad_cat_id": 46430,
        "meta_element_set_no": 999,
        "meta_rev_at_epoch": 79778,
        "meta_bstar": 0.0013871,
        "meta_mean_motion_dot": 5.902e-05,
        "meta_mean_motion_ddot": 0,
        "tle_line1": "1 46430U 93036BWU 25353.29908528  .00005902  00000+0  13871-2 0  9996",
        "tle_line2": "2 46430  73.9139 343.9071 0103211 263.0684  95.8727 14.51392906797781"
      },
      "geometry": {
        "type": "Point",
        "coordinates": [
          -13.01868764303334,
          21.748890289615044
        ]
      }
    },
    {
      "type": "Feature",
      "properties": {
        "norad_id": 46432,
        "name": "COSMOS 2251 DEB",
        "group": "cosmos-2251-debris",
        "lat": -72.18751477676365,
        "lon": 33.80239673647291,
        "alt_km": 956.827793930217,
        "timestamp": "2025-12-21T03:56:51.230791+00:00",
        "meta_object_name": "COSMOS 2251 DEB",
        "meta_object_id": "1993-036BWW",
        "meta_epoch": "2025-12-16T14:54:01.415808",
        "meta_mean_motion": 13.36645779,
        "meta_eccentricity": 0.04740577,
        "meta_inclination": 73.8726,
        "meta_ra_of_asc_node": 105.1782,
        "meta_arg_of_pericenter": 222.0894,
        "meta_mean_anomaly": 155.0222,
        "meta_ephemeris_type": 0,
        "meta_classification_type": "U",
        "meta_norad_cat_id": 46432,
        "meta_element_set_no": 999,
        "meta_rev_at_epoch": 67018,
        "meta_bstar": 0.0010887976,
        "meta_mean_motion_dot": 1.051e-05,
        "meta_mean_motion_ddot": 0,
        "tle_line1": "1 46432U 93036BWW 25350.62084972  .00001051  00000+0  10888-2 0  9996",
        "tle_line2": "2 46432  73.8726 105.1782 0474057 222.0894 155.0222 13.36645779670182"
      },
      "geometry": {
        "type": "Point",
        "coordinates": [
          33.80239673647291,
          -72.18751477676365
        ]
      }
    },
    {
      "type": "Feature",
      "properties": {
        "norad_id": 47045,
        "name": "COSMOS 2251 DEB",
        "group": "cosmos-2251-debris",
        "lat": 4.861079312924137,
        "lon": -47.739803043863894,
        "alt_km": 766.811422465159,
        "timestamp": "2025-12-21T03:56:51.230800+00:00",
        "meta_object_name": "COSMOS 2251 DEB",
        "meta_object_id": "1993-036BWZ",
        "meta_epoch": "2025-12-08T18:12:30.966336",
        "meta_mean_motion": 14.3889696,
        "meta_eccentricity": 0.00302024,
        "meta_inclination": 74.0568,
        "meta_ra_of_asc_node": 156.4972,
        "meta_arg_of_pericenter": 298.2595,
        "meta_mean_anomaly": 80.2379,
        "meta_ephemeris_type": 0,
        "meta_classification_type": "U",
        "meta_norad_cat_id": 47045,
        "meta_element_set_no": 999,
        "meta_rev_at_epoch": 7748,
        "meta_bstar": 0.00016053941,
        "meta_mean_motion_dot": 4.71e-06,
        "meta_mean_motion_ddot": 0,
        "tle_line1": "1 47045U 93036BWZ 25342.75869174  .00000471  00000+0  16054-3 0  9994",
        "tle_line2": "2 47045  74.0568 156.4972 0030202 298.2595  80.2379 14.38896960 77482"
      },
      "geometry": {
        "type": "Point",
        "coordinates": [
          -47.739803043863894,
          4.861079312924137
        ]
      }
    },
    {
      "type": "Feature",
      "properties": {
        "norad_id": 47048,
        "name": "COSMOS 2251 DEB",
        "group": "cosmos-2251-debris",
        "lat": 29.619993863109134,
        "lon": 113.84178562564819,
        "alt_km": 627.5288650285238,
        "timestamp": "2025-12-21T03:56:51.230810+00:00",
        "meta_object_name": "COSMOS 2251 DEB",
        "meta_object_id": "1993-036BXC",
        "meta_epoch": "2025-12-19T13:47:33.177120",
        "meta_mean_motion": 14.52356803,
        "meta_eccentricity": 0.0132576,
        "meta_inclination": 73.9784,
        "meta_ra_of_asc_node": 306.2511,
        "meta_arg_of_pericenter": 132.3729,
        "meta_mean_anomaly": 347.2197,
        "meta_ephemeris_type": 0,
        "meta_classification_type": "U",
        "meta_norad_cat_id": 47048,
        "meta_element_set_no": 999,
        "meta_rev_at_epoch": 59789,
        "meta_bstar": 0.00066595,
        "meta_mean_motion_dot": 3.012e-05,
        "meta_mean_motion_ddot": 0,
        "tle_line1": "1 47048U 93036BXC 25353.57468955  .00003012  00000+0  66595-3 0  9990",
        "tle_line2": "2 47048  73.9784 306.2511 0132576 132.3729 347.2197 14.52356803597890"
      },
      "geometry": {
        "type": "Point",
        "coordinates": [
          113.84178562564819,
          29.619993863109134
        ]
      }
    },
    {
      "type": "Feature",
      "properties": {
        "norad_id": 47051,
        "name": "COSMOS 2251 DEB",
        "group": "cosmos-2251-debris",
        "lat": 50.132657142560724,
        "lon": -170.22074750479703,
        "alt_km": 1166.4983540922813,
        "timestamp": "2025-12-21T03:56:51.230819+00:00",
        "meta_object_name": "COSMOS 2251 DEB",
        "meta_object_id": "1993-036BXF",
        "meta_epoch": "2025-12-13T06:55:53.868288",
        "meta_mean_motion": 13.67117141,
        "meta_eccentricity": 0.03401033,
        "meta_inclination": 74.1001,
        "meta_ra_of_asc_node": 182.6908,
        "meta_arg_of_pericenter": 296.1774,
        "meta_mean_anomaly": 246.9893,
        "meta_ephemeris_type": 0,
        "meta_classification_type": "U",
        "meta_norad_cat_id": 47051,
        "meta_element_set_no": 999,
        "meta_rev_at_epoch": 59945,
        "meta_bstar": 0.0019326179,
        "meta_mean_motion_dot": 2.391e-05,
        "meta_mean_motion_ddot": 0,
        "tle_line1": "1 47051U 93036BXF 25347.28881792  .00002391  00000+0  19326-2 0  9991",
        "tle_line2": "2 47051  74.1001 182.6908 0340103 296.1774 246.9893 13.67117141599458"
      },
      "geometry": {
        "type": "Point",
        "coordinates": [
          -170.22074750479703,
          50.132657142560724
        ]
      }
    }
  ]
}